[{"OBJECT_NAME":"STARLINK-31366","OBJECT_ID":"2024-064F","EPOCH":"2026-03-09T00:33:14.520672","MEAN_MOTION":15.27585402,"ECCENTRICITY":1.693e-5,"INCLINATION":42.9984,"RA_OF_ASC_NODE":59.9515,"ARG_OF_PERICENTER":94.417,"MEAN_ANOMALY":265.67,"EPHEMERIS_TYPE":0,"CLASSIFICATION_TYPE":"U","NORAD_CAT_ID":59403,"ELEMENT_SET_NO":999,"REV_AT_EPOCH":10912,"BSTAR":-0.00012422092,"MEAN_MOTION_DOT":-3.679e-5,"MEAN_MOTION_DDOT":0},{"OBJECT_NAME":"LIZZIESAT-2 (LS-2)","OBJECT_ID":"2024-247G","EPOCH":"2026-03-09T11:47:37.199328","MEAN_MOTION":15.28222796,"ECCENTRICITY":0.00040927,"INCLINATION":44.9909,"RA_OF_ASC_NODE":117.0823,"ARG_OF_PERICENTER":327.5136,"MEAN_ANOMALY":32.5495,"EPHEMERIS_TYPE":0,"CLASSIFICATION_TYPE":"U","NORAD_CAT_ID":62383,"ELEMENT_SET_NO":999,"REV_AT_EPOCH":6771,"BSTAR":0.00034516624,"MEAN_MOTION_DOT":9.388e-5,"MEAN_MOTION_DDOT":0}]
